{"type": "FeatureCollection", "features": [ {"type": "Feature", "properties": {"norad_id": 36402, "name": "COSMOS 2460 (732)", "group": "gnss", "lat": 63.213183517751, "lon": 75.86690845790687, "alt_km": 19129.052828143245, "timestamp": "2025-12-27T12:55:14.745953+00:00", "meta": {"OBJECT_NAME": "COSMOS 2460 (732)", "OBJECT_ID": "2010-007C", "EPOCH": "2025-12-27T01:42:51.563232", "MEAN_MOTION": 2.13106312, "ECCENTRICITY": 0.00024726, "INCLINATION": 65.5217, "RA_OF_ASC_NODE": 320.2897, "ARG_OF_PERICENTER": 284.8889, "MEAN_ANOMALY": 178.0863, "EPHEMERIS_TYPE": 0, "CLASSIFICATION_TYPE": "U", "NORAD_CAT_ID": 36402, "ELEMENT_SET_NO": 999, "REV_AT_EPOCH": 12306, "BSTAR": 0, "MEAN_MOTION_DOT": -3.6e-07, "MEAN_MOTION_DDOT": 0}, "tle": {"line1": "1 36402U 10007C   25361.07143013 -.00000036  00000+0  00000+0 0  9997", "line2": "2 36402  65.5217 320.2897 0002472 284.8889 178.0863  2.13106312123060"}}, "geometry": {"type": "Point", "coordinates": [75.86690845790687, 63.213183517751]}}, {"type": "Feature", "properties": {"norad_id": 36585, "name": "GPS BIIF-1  (PRN 25)", "group": "gnss", "lat": 49.19973047449858, "lon": -88.1072491773678, "alt_km": 19841.212518149845, "timestamp": "2025-12-27T12:55:14.745974+00:00", "meta": {"OBJECT_NAME": "GPS BIIF-1  (PRN 25)", "OBJECT_ID": "2010-022A", "EPOCH": "2025-12-27T03:27:39.235104", "MEAN_MOTION": 2.00553872, "ECCENTRICITY": 0.01266459, "INCLINATION": 54.298, "RA_OF_ASC_NODE": 215.4929, "ARG_OF_PERICENTER": 65.2561, "MEAN_ANOMALY": 78.9222, "EPHEMERIS_TYPE": 0, "CLASSIFICATION_TYPE": "U", "NORAD_CAT_ID": 36585, "ELEMENT_SET_NO": 999, "REV_AT_EPOCH": 11414, "BSTAR": 0, "MEAN_MOTION_DOT": 8.9e-07, "MEAN_MOTION_DDOT": 0}, "tle": {"line1": "1 36585U 10022A   25361.14420411  .00000089  00000+0  00000+0 0  9991", "line2": "2 36585  54.2980 215.4929 0126645  65.2561  78.9222  2.00553872114141"}}, "geometry": {"type": "Point", "coordinates": [-88.1072491773678, 49.19973047449858]}}, {"type": "Feature", "properties": {"norad_id": 36828, "name": "BEIDOU-2 IGSO-1 (C06)", "group": "gnss", "lat": -40.86189633379056, "lon": 23.018803994724347, "alt_km": 35584.85014732541, "timestamp": "2025-12-27T12:55:14.745998+00:00", "meta": {"OBJECT_NAME": "BEIDOU-2 IGSO-1 (C06)", "OBJECT_ID": "2010-036A", "EPOCH": "2025-12-25T21:06:51.904224", "MEAN_MOTION": 1.00272533, "ECCENTRICITY": 0.00515074, "INCLINATION": 54.2892, "RA_OF_ASC_NODE": 164.5291, "ARG_OF_PERICENTER": 215.7944, "MEAN_ANOMALY": 138.9488, "EPHEMERIS_TYPE": 0, "CLASSIFICATION_TYPE": "U", "NORAD_CAT_ID": 36828, "ELEMENT_SET_NO": 999, "REV_AT_EPOCH": 5635, "BSTAR": 0, "MEAN_MOTION_DOT": -5.2e-07, "MEAN_MOTION_DDOT": 0}, "tle": {"line1": "1 36828U 10036A   25359.87976741 -.00000052  00000+0  00000+0 0  9996", "line2": "2 36828  54.2892 164.5291 0051507 215.7944 138.9488  1.00272533 56350"}}, "geometry": {"type": "Point", "coordinates": [23.018803994724347, -40.86189633379056]}}, {"type": "Feature", "properties": {"norad_id": 37210, "name": "BEIDOU-2 G4 (C04)", "group": "gnss", "lat": 1.1313170464023943, "lon": 90.10952582634872, "alt_km": 35830.322252717546, "timestamp": "2025-12-27T12:55:14.746014+00:00", "meta": {"OBJECT_NAME": "BEIDOU-2 G4 (C04)", "OBJECT_ID": "2010-057A", "EPOCH": "2025-12-27T05:12:12.626784", "MEAN_MOTION": 1.0027119, "ECCENTRICITY": 0.00105047, "INCLINATION": 3.2181, "RA_OF_ASC_NODE": 69.8831, "ARG_OF_PERICENTER": 194.1703, "MEAN_ANOMALY": 70.0296, "EPHEMERIS_TYPE": 0, "CLASSIFICATION_TYPE": "U", "NORAD_CAT_ID": 37210, "ELEMENT_SET_NO": 999, "REV_AT_EPOCH": 5556, "BSTAR": 0, "MEAN_MOTION_DOT": -9.1e-07, "MEAN_MOTION_DDOT": 0}, "tle": {"line1": "1 37210U 10057A   25361.21681281 -.00000091  00000+0  00000+0 0  9991", "line2": "2 37210   3.2181  69.8831 0010504 194.1703  70.0296  1.00271190 55566"}}, "geometry": {"type": "Point", "coordinates": [90.10952582634872, 1.1313170464023943]}}, {"type": "Feature", "properties": {"norad_id": 37256, "name": "BEIDOU-2 IGSO-2 (C07)", "group": "gnss", "lat": 38.13551155306668, "lon": 48.76292824101194, "alt_km": 35785.72706255574, "timestamp": "2025-12-27T12:55:14.746027+00:00", "meta": {"OBJECT_NAME": "BEIDOU-2 IGSO-2 (C07)", "OBJECT_ID": "2010-068A", "EPOCH": "2025-12-26T15:56:02.027040", "MEAN_MOTION": 1.00281973, "ECCENTRICITY": 0.0048288, "INCLINATION": 47.8603, "RA_OF_ASC_NODE": 273.9787, "ARG_OF_PERICENTER": 215.9223, "MEAN_ANOMALY": 312.6243, "EPHEMERIS_TYPE": 0, "CLASSIFICATION_TYPE": "U", "NORAD_CAT_ID": 37256, "ELEMENT_SET_NO": 999, "REV_AT_EPOCH": 5506, "BSTAR": 0, "MEAN_MOTION_DOT": -2.02e-06, "MEAN_MOTION_DDOT": 0}, "tle": {"line1": "1 37256U 10068A   25360.66391235 -.00000202  00000+0  00000+0 0  9992", "line2": "2 37256  47.8603 273.9787 0048288 215.9223 312.6243  1.00281973 55068"}}, "geometry": {"type": "Point", "coordinates": [48.76292824101194, 38.13551155306668]}}, {"type": "Feature", "properties": {"norad_id": 37384, "name": "BEIDOU-2 IGSO-3 (C08)", "group": "gnss", "lat": -4.007914997313312, "lon": 39.683597686776196, "alt_km": 35933.09375183437, "timestamp": "2025-12-27T12:55:14.746040+00:00", "meta": {"OBJECT_NAME": "BEIDOU-2 IGSO-3 (C08)", "OBJECT_ID": "2011-013A", "EPOCH": "2025-12-26T18:04:14.277792", "MEAN_MOTION": 1.00267391, "ECCENTRICITY": 0.00351191, "INCLINATION": 62.1613, "RA_OF_ASC_NODE": 41.7837, "ARG_OF_PERICENTER": 187.8187, "MEAN_ANOMALY": 244.1436, "EPHEMERIS_TYPE": 0, "CLASSIFICATION_TYPE": "U", "NORAD_CAT_ID": 37384, "ELEMENT_SET_NO": 999, "REV_AT_EPOCH": 5393, "BSTAR": 0, "MEAN_MOTION_DOT": -1.71e-06, "MEAN_MOTION_DDOT": 0}, "tle": {"line1": "1 37384U 11013A   25360.75294303 -.00000171  00000+0  00000+0 0  9998", "line2": "2 37384  62.1613  41.7837 0035119 187.8187 244.1436  1.00267391 53938"}}, "geometry": {"type": "Point", "coordinates": [39.683597686776196, -4.007914997313312]}}, {"type": "Feature", "properties": {"norad_id": 37605, "name": "GSAT-8 (GAGAN/PRN 127)", "group": "gnss", "lat": -1.6741614743696354, "lon": -14.760234114774438, "alt_km": 35775.652066510884, "timestamp": "2025-12-27T12:55:14.746053+00:00", "meta": {"OBJECT_NAME": "GSAT-8 (GAGAN/PRN 127)", "OBJECT_ID": "2011-022A", "EPOCH": "2025-12-27T04:42:15.496416", "MEAN_MOTION": 1.00271973, "ECCENTRICITY": 0.00091095, "INCLINATION": 1.6852, "RA_OF_ASC_NODE": 84.0379, "ARG_OF_PERICENTER": 187.0249, "MEAN_ANOMALY": 310.5007, "EPHEMERIS_TYPE": 0, "CLASSIFICATION_TYPE": "U", "NORAD_CAT_ID": 37605, "ELEMENT_SET_NO": 999, "REV_AT_EPOCH": 5149, "BSTAR": 0, "MEAN_MOTION_DOT": 1.06e-06, "MEAN_MOTION_DDOT": 0}, "tle": {"line1": "1 37605U 11022A   25361.19601269  .00000106  00000+0  00000+0 0  9993", "line2": "2 37605   1.6852  84.0379 0009109 187.0249 310.5007  1.00271973 51491"}}, "geometry": {"type": "Point", "coordinates": [-14.760234114774438, -1.6741614743696354]}}, {"type": "Feature", "properties": {"norad_id": 37763, "name": "BEIDOU-2 IGSO-4 (C09)", "group": "gnss", "lat": -29.586542633726328, "lon": 11.053571943564219, "alt_km": 35174.3381854956, "timestamp": "2025-12-27T12:55:14.746066+00:00", "meta": {"OBJECT_NAME": "BEIDOU-2 IGSO-4 (C09)", "OBJECT_ID": "2011-038A", "EPOCH": "2025-12-26T23:21:51.633792", "MEAN_MOTION": 1.00276208, "ECCENTRICITY": 0.01496647, "INCLINATION": 54.5847, "RA_OF_ASC_NODE": 167.22, "ARG_OF_PERICENTER": 230.2504, "MEAN_ANOMALY": 143.4727, "EPHEMERIS_TYPE": 0, "CLASSIFICATION_TYPE": "U", "NORAD_CAT_ID": 37763, "ELEMENT_SET_NO": 999, "REV_AT_EPOCH": 5292, "BSTAR": 0, "MEAN_MOTION_DOT": 7.7e-07, "MEAN_MOTION_DDOT": 0}, "tle": {"line1": "1 37763U 11038A   25360.97351428  .00000077  00000+0  00000+0 0  9996", "line2": "2 37763  54.5847 167.2200 0149664 230.2504 143.4727  1.00276208 52927"}}, "geometry": {"type": "Point", "coordinates": [11.053571943564219, -29.586542633726328]}}, {"type": "Feature", "properties": {"norad_id": 37846, "name": "GSAT0101 (GALILEO-PFM)", "group": "gnss", "lat": -13.923888130479597, "lon": -22.843321626025176, "alt_km": 23215.132073611192, "timestamp": "2025-12-27T12:55:14.746079+00:00", "meta": {"OBJECT_NAME": "GSAT0101 (GALILEO-PFM)", "OBJECT_ID": "2011-060A", "EPOCH": "2025-12-24T15:10:54.850656", "MEAN_MOTION": 1.70475643, "ECCENTRICITY": 0.00032614, "INCLINATION": 57.05, "RA_OF_ASC_NODE": 346.4975, "ARG_OF_PERICENTER": 321.0017, "MEAN_ANOMALY": 38.9828, "EPHEMERIS_TYPE": 0, "CLASSIFICATION_TYPE": "U", "NORAD_CAT_ID": 37846, "ELEMENT_SET_NO": 999, "REV_AT_EPOCH": 8814, "BSTAR": 0, "MEAN_MOTION_DOT": -6.1e-07, "MEAN_MOTION_DDOT": 0}, "tle": {"line1": "1 37846U 11060A   25358.63257929 -.00000061  00000+0  00000+0 0  9998", "line2": "2 37846  57.0500 346.4975 0003261 321.0017  38.9828  1.70475643 88147"}}, "geometry": {"type": "Point", "coordinates": [-22.843321626025176, -13.923888130479597]}}, {"type": "Feature", "properties": {"norad_id": 37847, "name": "GSAT0102 (GALILEO-FM2)", "group": "gnss", "lat": 23.887429463812325, "lon": 3.1005518060965267, "alt_km": 23215.370943969057, "timestamp": "2025-12-27T12:55:14.746091+00:00", "meta": {"OBJECT_NAME": "GSAT0102 (GALILEO-FM2)", "OBJECT_ID": "2011-060B", "EPOCH": "2025-12-22T11:58:40.586304", "MEAN_MOTION": 1.70475957, "ECCENTRICITY": 0.00051595, "INCLINATION": 57.0512, "RA_OF_ASC_NODE": 346.5558, "ARG_OF_PERICENTER": 313.0615, "MEAN_ANOMALY": 223.0229, "EPHEMERIS_TYPE": 0, "CLASSIFICATION_TYPE": "U", "NORAD_CAT_ID": 37847, "ELEMENT_SET_NO": 999, "REV_AT_EPOCH": 8811, "BSTAR": 0, "MEAN_MOTION_DOT": -6.5e-07, "MEAN_MOTION_DDOT": 0}, "tle": {"line1": "1 37847U 11060B   25356.49908086 -.00000065  00000+0  00000+0 0  9992", "line2": "2 37847  57.0512 346.5558 0005159 313.0615 223.0229  1.70475957 88119"}}, "geometry": {"type": "Point", "coordinates": [3.1005518060965267, 23.887429463812325]}}]}